start=new Date('2022-11-13T00:00:00.000Z').valueOf();
sats=[{"REV_AT_EPOCH":"2835","EPHEMERIS_TYPE":"0","MEAN_MOTION":"15.08865797","RA_OF_ASC_NODE":"173.6531","DECAY_DATE":null,"EPOCH":"2022-11-12T21:02:06.005760","ARG_OF_PERICENTER":"39.3622","CLASSIFICATION_TYPE":"U","GP_ID":"217587782","LAUNCH_DATE":"2022-05-13","SITE":"AFWTR","ECCENTRICITY":"0.00024320","RCS_SIZE":"LARGE","TLE_LINE2":"2 52550  53.2165 173.6531 0002432  39.3622 320.7546 15.08865797 28354","MEAN_ANOMALY":"320.7546","FILE":"3652635","OBJECT_ID":"2022-051T","OBJECT_NAME":"STARLINK-3965","MEAN_MOTION_DDOT":"0.0000000000000","MEAN_MOTION_DOT":"0.00005150","CENTER_NAME":"EARTH","COUNTRY_CODE":"US","ELEMENT_SET_NO":"999","OBJECT_TYPE":"PAYLOAD","BSTAR":"0.00034122000000","INCLINATION":"53.2165","SEMIMAJOR_AXIS":"6917.802","PERIOD":"95.436","PERIAPSIS":"537.984","NORAD_CAT_ID":"52550","TLE_LINE1":"1 52550U 22051T   22316.87645840  .00005150  00000-0  34122-3 0  9999","TIME_SYSTEM":"UTC","REF_FRAME":"TEME","MEAN_ELEMENT_THEORY":"SGP4","APOAPSIS":"541.349"},{"MEAN_MOTION":"15.08853222","REV_AT_EPOCH":"2835","EPHEMERIS_TYPE":"0","ARG_OF_PERICENTER":"47.6910","CLASSIFICATION_TYPE":"U","RA_OF_ASC_NODE":"173.6237","EPOCH":"2022-11-12T21:12:41.627232","DECAY_DATE":null,"SITE":"AFWTR","ECCENTRICITY":"0.00021590","LAUNCH_DATE":"2022-05-13","GP_ID":"217588534","TLE_LINE2":"2 52551  53.2179 173.6237 0002159  47.6910 312.4264 15.08853222 28356","MEAN_ANOMALY":"312.4264","RCS_SIZE":"LARGE","MEAN_MOTION_DOT":"0.00003554","MEAN_MOTION_DDOT":"0.0000000000000","CENTER_NAME":"EARTH","COUNTRY_CODE":"US","FILE":"3652635","OBJECT_ID":"2022-051U","OBJECT_NAME":"STARLINK-3969","OBJECT_TYPE":"PAYLOAD","BSTAR":"0.00024120000000","ELEMENT_SET_NO":"999","INCLINATION":"53.2179","SEMIMAJOR_AXIS":"6917.840","PERIOD":"95.437","TIME_SYSTEM":"UTC","MEAN_ELEMENT_THEORY":"SGP4","REF_FRAME":"TEME","APOAPSIS":"541.199","PERIAPSIS":"538.211","NORAD_CAT_ID":"52551","TLE_LINE1":"1 52551U 22051U   22316.88381513  .00003554  00000-0  24120-3 0  9998"},{"APOAPSIS":"541.277","TIME_SYSTEM":"UTC","REF_FRAME":"TEME","MEAN_ELEMENT_THEORY":"SGP4","TLE_LINE1":"1 52552U 22051V   22316.86540793  .00010840  00000-0  69786-3 0  9997","PERIAPSIS":"538.135","NORAD_CAT_ID":"52552","SEMIMAJOR_AXIS":"6917.841","PERIOD":"95.437","OBJECT_TYPE":"PAYLOAD","BSTAR":"0.00069786000000","ELEMENT_SET_NO":"999","INCLINATION":"53.2169","CENTER_NAME":"EARTH","COUNTRY_CODE":"US","MEAN_MOTION_DOT":"0.00010840","MEAN_MOTION_DDOT":"0.0000000000000","OBJECT_NAME":"STARLINK-3966","OBJECT_ID":"2022-051V","FILE":"3652635","MEAN_ANOMALY":"325.0426","TLE_LINE2":"2 52552  53.2169 173.7055 0002271  35.0715 325.0426 15.08852738 28355","RCS_SIZE":"LARGE","SITE":"AFWTR","ECCENTRICITY":"0.00022710","GP_ID":"217588775","LAUNCH_DATE":"2022-05-13","ARG_OF_PERICENTER":"35.0715","CLASSIFICATION_TYPE":"U","EPOCH":"2022-11-12T20:46:11.245152","DECAY_DATE":null,"RA_OF_ASC_NODE":"173.7055","MEAN_MOTION":"15.08852738","REV_AT_EPOCH":"2835","EPHEMERIS_TYPE":"0"},{"RCS_SIZE":"LARGE","MEAN_ANOMALY":"320.5426","TLE_LINE2":"2 52553  53.2166 173.6370 0002485  39.5747 320.5426 15.08853328 28359","GP_ID":"217588033","LAUNCH_DATE":"2022-05-13","ECCENTRICITY":"0.00024850","SITE":"AFWTR","EPOCH":"2022-11-12T21:07:22.863072","DECAY_DATE":null,"RA_OF_ASC_NODE":"173.6370","CLASSIFICATION_TYPE":"U","ARG_OF_PERICENTER":"39.5747","EPHEMERIS_TYPE":"0","REV_AT_EPOCH":"2835","MEAN_MOTION":"15.08853328","TLE_LINE1":"1 52553U 22051W   22316.88012573  .00003567  00000-0  24201-3 0  9991","NORAD_CAT_ID":"52553","PERIAPSIS":"537.986","APOAPSIS":"541.424","REF_FRAME":"TEME","MEAN_ELEMENT_THEORY":"SGP4","TIME_SYSTEM":"UTC","PERIOD":"95.437","SEMIMAJOR_AXIS":"6917.840","INCLINATION":"53.2166","ELEMENT_SET_NO":"999","OBJECT_TYPE":"PAYLOAD","BSTAR":"0.00024201000000","OBJECT_NAME":"STARLINK-3858","OBJECT_ID":"2022-051W","FILE":"3652635","COUNTRY_CODE":"US","CENTER_NAME":"EARTH","MEAN_MOTION_DOT":"0.00003567","MEAN_MOTION_DDOT":"0.0000000000000"},{"GP_ID":"217588283","LAUNCH_DATE":"2022-05-13","SITE":"AFWTR","ECCENTRICITY":"0.00021500","RCS_SIZE":"LARGE","MEAN_ANOMALY":"315.9390","TLE_LINE2":"2 52554  53.2149 178.7726 0002150  44.1773 315.9390 15.08846562 28273","REV_AT_EPOCH":"2827","EPHEMERIS_TYPE":"0","MEAN_MOTION":"15.08846562","EPOCH":"2022-11-12T20:26:59.699040","DECAY_DATE":null,"RA_OF_ASC_NODE":"178.7726","ARG_OF_PERICENTER":"44.1773","CLASSIFICATION_TYPE":"U","SEMIMAJOR_AXIS":"6917.860","PERIOD":"95.437","TLE_LINE1":"1 52554U 22051X   22316.85207985  .00006612  00000-0  43303-3 0  9990","PERIAPSIS":"538.238","NORAD_CAT_ID":"52554","APOAPSIS":"541.213","TIME_SYSTEM":"UTC","MEAN_ELEMENT_THEORY":"SGP4","REF_FRAME":"TEME","OBJECT_ID":"2022-051X","OBJECT_NAME":"STARLINK-3770","FILE":"3652635","CENTER_NAME":"EARTH","COUNTRY_CODE":"US","MEAN_MOTION_DDOT":"0.0000000000000","MEAN_MOTION_DOT":"0.00006612","ELEMENT_SET_NO":"999","OBJECT_TYPE":"PAYLOAD","BSTAR":"0.00043303000000","INCLINATION":"53.2149"},{"OBJECT_NAME":"STARLINK-3949","OBJECT_ID":"2022-051Y","FILE":"3652635","COUNTRY_CODE":"US","CENTER_NAME":"EARTH","MEAN_MOTION_DOT":"0.00001469","MEAN_MOTION_DDOT":"0.0000000000000","INCLINATION":"53.2184","OBJECT_TYPE":"PAYLOAD","BSTAR":"0.00011038000000","ELEMENT_SET_NO":"999","PERIOD":"95.437","SEMIMAJOR_AXIS":"6917.876","TLE_LINE1":"1 52555U 22051Y   22316.87276164  .00001469  00000-0  11038-3 0  9993","NORAD_CAT_ID":"52555","PERIAPSIS":"538.424","APOAPSIS":"541.058","MEAN_ELEMENT_THEORY":"SGP4","REF_FRAME":"TEME","TIME_SYSTEM":"UTC","EPHEMERIS_TYPE":"0","REV_AT_EPOCH":"2835","MEAN_MOTION":"15.08841464","EPOCH":"2022-11-12T20:56:46.605696","DECAY_DATE":null,"RA_OF_ASC_NODE":"173.6661","CLASSIFICATION_TYPE":"U","ARG_OF_PERICENTER":"46.8682","LAUNCH_DATE":"2022-05-13","GP_ID":"217589035","ECCENTRICITY":"0.00019040","SITE":"AFWTR","RCS_SIZE":"LARGE","MEAN_ANOMALY":"313.2469","TLE_LINE2":"2 52555  53.2184 173.6661 0001904  46.8682 313.2469 15.08841464 28352"},{"CLASSIFICATION_TYPE":"U","ARG_OF_PERICENTER":"113.7912","DECAY_DATE":null,"EPOCH":"2022-11-12T21:33:02.573280","RA_OF_ASC_NODE":"178.3980","MEAN_MOTION":"15.09309630","EPHEMERIS_TYPE":"0","REV_AT_EPOCH":"2828","MEAN_ANOMALY":"246.3227","TLE_LINE2":"2 52556  53.2157 178.3980 0001402 113.7912 246.3227 15.09309630 28287","RCS_SIZE":"LARGE","ECCENTRICITY":"0.00014020","SITE":"AFWTR","GP_ID":"217589276","LAUNCH_DATE":"2022-05-13","INCLINATION":"53.2157","OBJECT_TYPE":"PAYLOAD","ELEMENT_SET_NO":"999","BSTAR":"0.00061765000000","COUNTRY_CODE":"US","CENTER_NAME":"EARTH","MEAN_MOTION_DDOT":"0.0000000000000","MEAN_MOTION_DOT":"0.00009682","OBJECT_ID":"2022-051Z","OBJECT_NAME":"STARLINK-3763","FILE":"3652635","APOAPSIS":"539.280","REF_FRAME":"TEME","MEAN_ELEMENT_THEORY":"SGP4","TIME_SYSTEM":"UTC","TLE_LINE1":"1 52556U 22051Z   22316.89794645  .00009682  00000-0  61765-3 0  9992","NORAD_CAT_ID":"52556","PERIAPSIS":"537.341","PERIOD":"95.408","SEMIMAJOR_AXIS":"6916.445"},{"BSTAR":"0.00029664000000","OBJECT_TYPE":"PAYLOAD","ELEMENT_SET_NO":"999","INCLINATION":"53.2182","CENTER_NAME":"EARTH","COUNTRY_CODE":"US","MEAN_MOTION_DDOT":"0.0000000000000","MEAN_MOTION_DOT":"0.00004437","OBJECT_NAME":"STARLINK-3943","OBJECT_ID":"2022-051AA","FILE":"3652635","APOAPSIS":"540.970","TIME_SYSTEM":"UTC","REF_FRAME":"TEME","MEAN_ELEMENT_THEORY":"SGP4","TLE_LINE1":"1 52557U 22051AA  22316.86172913  .00004437  00000-0  29664-3 0  9993","PERIAPSIS":"538.481","NORAD_CAT_ID":"52557","SEMIMAJOR_AXIS":"6917.860","PERIOD":"95.437","ARG_OF_PERICENTER":"57.6240","CLASSIFICATION_TYPE":"U","DECAY_DATE":null,"EPOCH":"2022-11-12T20:40:53.396832","RA_OF_ASC_NODE":"173.7270","MEAN_MOTION":"15.08846652","REV_AT_EPOCH":"2835","EPHEMERIS_TYPE":"0","MEAN_ANOMALY":"302.4926","TLE_LINE2":"2 52557  53.2182 173.7270 0001799  57.6240 302.4926 15.08846652 28353","RCS_SIZE":"LARGE","SITE":"AFWTR","ECCENTRICITY":"0.00017990","GP_ID":"217587533","LAUNCH_DATE":"2022-05-13"},{"PERIOD":"95.438","SEMIMAJOR_AXIS":"6917.885","APOAPSIS":"541.148","REF_FRAME":"TEME","MEAN_ELEMENT_THEORY":"SGP4","TIME_SYSTEM":"UTC","TLE_LINE1":"1 52558U 22051AB  22316.86265392  .00001630  00000-0  12048-3 0  9998","NORAD_CAT_ID":"52558","PERIAPSIS":"538.352","COUNTRY_CODE":"US","CENTER_NAME":"EARTH","MEAN_MOTION_DOT":"0.00001630","MEAN_MOTION_DDOT":"0.0000000000000","OBJECT_ID":"2022-051AB","OBJECT_NAME":"STARLINK-3954","FILE":"3652635","INCLINATION":"53.2166","OBJECT_TYPE":"PAYLOAD","BSTAR":"0.00012048000000","ELEMENT_SET_NO":"999","ECCENTRICITY":"0.00020210","SITE":"AFWTR","LAUNCH_DATE":"2022-05-13","GP_ID":"217587783","MEAN_ANOMALY":"315.6851","TLE_LINE2":"2 52558  53.2166 163.7091 0002021  44.4303 315.6851 15.08838533 28485","RCS_SIZE":"LARGE","MEAN_MOTION":"15.08838533","EPHEMERIS_TYPE":"0","REV_AT_EPOCH":"2848","CLASSIFICATION_TYPE":"U","ARG_OF_PERICENTER":"44.4303","EPOCH":"2022-11-12T20:42:13.298688","DECAY_DATE":null,"RA_OF_ASC_NODE":"163.7091"},{"SEMIMAJOR_AXIS":"6917.897","PERIOD":"95.438","TIME_SYSTEM":"UTC","MEAN_ELEMENT_THEORY":"SGP4","REF_FRAME":"TEME","APOAPSIS":"540.713","PERIAPSIS":"538.812","NORAD_CAT_ID":"52559","TLE_LINE1":"1 52559U 22051AC  22316.85626144  .00006466  00000-0  42403-3 0  9994","MEAN_MOTION_DOT":"0.00006466","MEAN_MOTION_DDOT":"0.0000000000000","CENTER_NAME":"EARTH","COUNTRY_CODE":"US","FILE":"3652635","OBJECT_NAME":"STARLINK-3953","OBJECT_ID":"2022-051AC","OBJECT_TYPE":"PAYLOAD","ELEMENT_SET_NO":"999","BSTAR":"0.00042403000000","INCLINATION":"53.2151","SITE":"AFWTR","ECCENTRICITY":"0.00013740","GP_ID":"217588535","LAUNCH_DATE":"2022-05-13","TLE_LINE2":"2 52559  53.2151 163.7406 0001374  59.7121 300.4007 15.08834487 28486","MEAN_ANOMALY":"300.4007","RCS_SIZE":"LARGE","MEAN_MOTION":"15.08834487","REV_AT_EPOCH":"2848","EPHEMERIS_TYPE":"0","ARG_OF_PERICENTER":"59.7121","CLASSIFICATION_TYPE":"U","RA_OF_ASC_NODE":"163.7406","EPOCH":"2022-11-12T20:33:00.988416","DECAY_DATE":null}];
